{"fetched_at":"2026-07-09T08:01:27.804Z","source":"https://celestrak.org/NORAD/elements/gp.php?NAME=SENTINEL&FORMAT=JSON","constellation":"sentinel-5p","records":[{"OBJECT_NAME":"SENTINEL-5P","OBJECT_ID":"2017-064A","EPOCH":"2026-07-08T20:11:07.252224","CLASSIFICATION_TYPE":"U","MEAN_MOTION":14.19522581,"ECCENTRICITY":0.000109,"INCLINATION":98.7928,"RA_OF_ASC_NODE":131.8187,"ARG_OF_PERICENTER":91.8263,"MEAN_ANOMALY":268.3038,"EPHEMERIS_TYPE":0,"NORAD_CAT_ID":42969,"ELEMENT_SET_NO":999,"REV_AT_EPOCH":45263,"BSTAR":0.000027035483,"MEAN_MOTION_DOT":1.3e-7,"MEAN_MOTION_DDOT":0}]}
